{
 "generated_at": "2026-06-11T23:47:41Z",
 "sources": [
  {
   "name": "CelesTrak",
   "url": "https://celestrak.org/NORAD/elements/",
   "license": "frei verfügbar; Attribution. Ursprünglich USSPACECOM/Space-Track."
  },
  {
   "name": "GCAT (J. McDowell, planet4589.org)",
   "url": "https://planet4589.org/space/gcat/",
   "license": "CC-BY 4.0"
  }
 ],
 "satellites": [
  {
   "norad": 42988,
   "name": "SKYSAT-C10",
   "intl": "2017-068B",
   "group": "resource",
   "gcat": {
    "class": "B",
    "category": "IMG",
    "owner": "PLABST",
    "state": "US"
   },
   "omm": {
    "OBJECT_NAME": "SKYSAT-C10",
    "OBJECT_ID": "2017-068B",
    "EPOCH": "2026-06-11T08:36:23.745888",
    "MEAN_MOTION": 15.34538193,
    "ECCENTRICITY": 0.0001169,
    "INCLINATION": 97.449,
    "RA_OF_ASC_NODE": 299.1499,
    "ARG_OF_PERICENTER": 92.3296,
    "MEAN_ANOMALY": 267.8081,
    "EPHEMERIS_TYPE": 0,
    "CLASSIFICATION_TYPE": "U",
    "NORAD_CAT_ID": 42988,
    "ELEMENT_SET_NO": 999,
    "REV_AT_EPOCH": 48146,
    "BSTAR": 0.00022533,
    "MEAN_MOTION_DOT": 0.00007458,
    "MEAN_MOTION_DDOT": 0
   }
  },
  {
   "norad": 42987,
   "name": "SKYSAT-C11",
   "intl": "2017-068A",
   "group": "resource",
   "gcat": {
    "class": "B",
    "category": "IMG",
    "owner": "PLABST",
    "state": "US"
   },
   "omm": {
    "OBJECT_NAME": "SKYSAT-C11",
    "OBJECT_ID": "2017-068A",
    "EPOCH": "2026-06-11T09:42:19.124928",
    "MEAN_MOTION": 15.57594006,
    "ECCENTRICITY": 0.0000881,
    "INCLINATION": 97.4337,
    "RA_OF_ASC_NODE": 310.9856,
    "ARG_OF_PERICENTER": 86.612,
    "MEAN_ANOMALY": 273.5236,
    "EPHEMERIS_TYPE": 0,
    "CLASSIFICATION_TYPE": "U",
    "NORAD_CAT_ID": 42987,
    "ELEMENT_SET_NO": 999,
    "REV_AT_EPOCH": 48234,
    "BSTAR": 0.00030874,
    "MEAN_MOTION_DOT": 0.00022701,
    "MEAN_MOTION_DDOT": 0
   }
  },
  {
   "norad": 41773,
   "name": "SKYSAT-C2",
   "intl": "2016-058D",
   "group": "resource",
   "gcat": {
    "class": "B",
    "category": "IMG",
    "owner": "TBELLA",
    "state": "US"
   },
   "omm": {
    "OBJECT_NAME": "SKYSAT-C2",
    "OBJECT_ID": "2016-058D",
    "EPOCH": "2026-06-11T14:43:42.182688",
    "MEAN_MOTION": 15.41943736,
    "ECCENTRICITY": 0.000503,
    "INCLINATION": 97.0174,
    "RA_OF_ASC_NODE": 184.9185,
    "ARG_OF_PERICENTER": 82.874,
    "MEAN_ANOMALY": 277.308,
    "EPHEMERIS_TYPE": 0,
    "CLASSIFICATION_TYPE": "U",
    "NORAD_CAT_ID": 41773,
    "ELEMENT_SET_NO": 999,
    "REV_AT_EPOCH": 54419,
    "BSTAR": 0.00026782,
    "MEAN_MOTION_DOT": 0.00011321,
    "MEAN_MOTION_DDOT": 0
   }
  },
  {
   "norad": 41774,
   "name": "SKYSAT-C3",
   "intl": "2016-058E",
   "group": "resource",
   "gcat": {
    "class": "B",
    "category": "IMG",
    "owner": "TBELLA",
    "state": "US"
   },
   "omm": {
    "OBJECT_NAME": "SKYSAT-C3",
    "OBJECT_ID": "2016-058E",
    "EPOCH": "2026-06-11T12:51:07.340832",
    "MEAN_MOTION": 15.52297681,
    "ECCENTRICITY": 0.0001751,
    "INCLINATION": 96.9012,
    "RA_OF_ASC_NODE": 193.6007,
    "ARG_OF_PERICENTER": 86.2844,
    "MEAN_ANOMALY": 273.861,
    "EPHEMERIS_TYPE": 0,
    "CLASSIFICATION_TYPE": "U",
    "NORAD_CAT_ID": 41774,
    "ELEMENT_SET_NO": 999,
    "REV_AT_EPOCH": 54523,
    "BSTAR": 0.0003399,
    "MEAN_MOTION_DOT": 0.000206,
    "MEAN_MOTION_DDOT": 0
   }
  },
  {
   "norad": 41771,
   "name": "SKYSAT-C4",
   "intl": "2016-058B",
   "group": "resource",
   "gcat": {
    "class": "B",
    "category": "IMG",
    "owner": "TBELLA",
    "state": "US"
   },
   "omm": {
    "OBJECT_NAME": "SKYSAT-C4",
    "OBJECT_ID": "2016-058B",
    "EPOCH": "2026-06-11T13:56:25.645632",
    "MEAN_MOTION": 15.48411611,
    "ECCENTRICITY": 0.0000957,
    "INCLINATION": 96.9177,
    "RA_OF_ASC_NODE": 184.5882,
    "ARG_OF_PERICENTER": 116.6405,
    "MEAN_ANOMALY": 243.4945,
    "EPHEMERIS_TYPE": 0,
    "CLASSIFICATION_TYPE": "U",
    "NORAD_CAT_ID": 41771,
    "ELEMENT_SET_NO": 999,
    "REV_AT_EPOCH": 54460,
    "BSTAR": 0.00028218,
    "MEAN_MOTION_DOT": 0.00014882,
    "MEAN_MOTION_DDOT": 0
   }
  },
  {
   "norad": 41772,
   "name": "SKYSAT-C5",
   "intl": "2016-058C",
   "group": "resource",
   "gcat": {
    "class": "B",
    "category": "IMG",
    "owner": "TBELLA",
    "state": "US"
   },
   "omm": {
    "OBJECT_NAME": "SKYSAT-C5",
    "OBJECT_ID": "2016-058C",
    "EPOCH": "2026-06-11T16:35:22.665984",
    "MEAN_MOTION": 15.34391815,
    "ECCENTRICITY": 0.0001617,
    "INCLINATION": 97.0478,
    "RA_OF_ASC_NODE": 203.5767,
    "ARG_OF_PERICENTER": 351.6137,
    "MEAN_ANOMALY": 8.5079,
    "EPHEMERIS_TYPE": 0,
    "CLASSIFICATION_TYPE": "U",
    "NORAD_CAT_ID": 41772,
    "ELEMENT_SET_NO": 999,
    "REV_AT_EPOCH": 54290,
    "BSTAR": 0.00021302,
    "MEAN_MOTION_DOT": 0.0000702,
    "MEAN_MOTION_DDOT": 0
   }
  },
  {
   "norad": 42992,
   "name": "SKYSAT-C6",
   "intl": "2017-068F",
   "group": "resource",
   "gcat": {
    "class": "B",
    "category": "IMG",
    "owner": "PLABST",
    "state": "US"
   },
   "omm": {
    "OBJECT_NAME": "SKYSAT-C6",
    "OBJECT_ID": "2017-068F",
    "EPOCH": "2026-06-11T08:12:11.768832",
    "MEAN_MOTION": 15.34108684,
    "ECCENTRICITY": 0.0004143,
    "INCLINATION": 97.4555,
    "RA_OF_ASC_NODE": 299.8907,
    "ARG_OF_PERICENTER": 152.7349,
    "MEAN_ANOMALY": 207.4112,
    "EPHEMERIS_TYPE": 0,
    "CLASSIFICATION_TYPE": "U",
    "NORAD_CAT_ID": 42992,
    "ELEMENT_SET_NO": 999,
    "REV_AT_EPOCH": 48142,
    "BSTAR": 0.00024524,
    "MEAN_MOTION_DOT": 0.00008016,
    "MEAN_MOTION_DDOT": 0
   }
  },
  {
   "norad": 42991,
   "name": "SKYSAT-C7",
   "intl": "2017-068E",
   "group": "resource",
   "gcat": {
    "class": "B",
    "category": "IMG",
    "owner": "PLABST",
    "state": "US"
   },
   "omm": {
    "OBJECT_NAME": "SKYSAT-C7",
    "OBJECT_ID": "2017-068E",
    "EPOCH": "2026-06-11T15:47:11.751360",
    "MEAN_MOTION": 15.36816791,
    "ECCENTRICITY": 0.0007126,
    "INCLINATION": 97.452,
    "RA_OF_ASC_NODE": 300.2198,
    "ARG_OF_PERICENTER": 122.5745,
    "MEAN_ANOMALY": 237.6188,
    "EPHEMERIS_TYPE": 0,
    "CLASSIFICATION_TYPE": "U",
    "NORAD_CAT_ID": 42991,
    "ELEMENT_SET_NO": 999,
    "REV_AT_EPOCH": 48152,
    "BSTAR": 0.00028624,
    "MEAN_MOTION_DOT": 0.00010227,
    "MEAN_MOTION_DDOT": 0
   }
  },
  {
   "norad": 42990,
   "name": "SKYSAT-C8",
   "intl": "2017-068D",
   "group": "resource",
   "gcat": {
    "class": "B",
    "category": "IMG",
    "owner": "PLABST",
    "state": "US"
   },
   "omm": {
    "OBJECT_NAME": "SKYSAT-C8",
    "OBJECT_ID": "2017-068D",
    "EPOCH": "2026-06-11T08:07:51.519072",
    "MEAN_MOTION": 15.36860099,
    "ECCENTRICITY": 0.0001524,
    "INCLINATION": 97.4508,
    "RA_OF_ASC_NODE": 298.9075,
    "ARG_OF_PERICENTER": 97.0045,
    "MEAN_ANOMALY": 263.1372,
    "EPHEMERIS_TYPE": 0,
    "CLASSIFICATION_TYPE": "U",
    "NORAD_CAT_ID": 42990,
    "ELEMENT_SET_NO": 999,
    "REV_AT_EPOCH": 48141,
    "BSTAR": 0.00025109,
    "MEAN_MOTION_DOT": 0.00008965,
    "MEAN_MOTION_DDOT": 0
   }
  },
  {
   "norad": 42989,
   "name": "SKYSAT-C9",
   "intl": "2017-068C",
   "group": "resource",
   "gcat": {
    "class": "B",
    "category": "IMG",
    "owner": "PLABST",
    "state": "US"
   },
   "omm": {
    "OBJECT_NAME": "SKYSAT-C9",
    "OBJECT_ID": "2017-068C",
    "EPOCH": "2026-06-11T15:45:07.521120",
    "MEAN_MOTION": 15.41424602,
    "ECCENTRICITY": 0.0009162,
    "INCLINATION": 97.4411,
    "RA_OF_ASC_NODE": 300.3327,
    "ARG_OF_PERICENTER": 150.5736,
    "MEAN_ANOMALY": 209.6029,
    "EPHEMERIS_TYPE": 0,
    "CLASSIFICATION_TYPE": "U",
    "NORAD_CAT_ID": 42989,
    "ELEMENT_SET_NO": 999,
    "REV_AT_EPOCH": 48190,
    "BSTAR": 0.00030298,
    "MEAN_MOTION_DOT": 0.00012606,
    "MEAN_MOTION_DDOT": 0
   }
  }
 ]
}
